[{"OBJECT_NAME":"FLOCK 4G-3","OBJECT_ID":"2025-009AG","EPOCH":"2026-03-09T19:14:30.392160","MEAN_MOTION":15.2717931,"ECCENTRICITY":0.00013196,"INCLINATION":97.4062,"RA_OF_ASC_NODE":151.4068,"ARG_OF_PERICENTER":293.2042,"MEAN_ANOMALY":66.9058,"EPHEMERIS_TYPE":0,"CLASSIFICATION_TYPE":"U","NORAD_CAT_ID":62639,"ELEMENT_SET_NO":999,"REV_AT_EPOCH":6372,"BSTAR":0.0004338875,"MEAN_MOTION_DOT":0.00011494,"MEAN_MOTION_DDOT":0},{"OBJECT_NAME":"STARLINK-36490","OBJECT_ID":"2026-002A","EPOCH":"2026-03-09T01:04:15.539520","MEAN_MOTION":15.27570065,"ECCENTRICITY":0.00022249,"INCLINATION":43.0048,"RA_OF_ASC_NODE":328.6178,"ARG_OF_PERICENTER":263.5738,"MEAN_ANOMALY":96.4861,"EPHEMERIS_TYPE":0,"CLASSIFICATION_TYPE":"U","NORAD_CAT_ID":67305,"ELEMENT_SET_NO":999,"REV_AT_EPOCH":1104,"BSTAR":0.0011108884,"MEAN_MOTION_DOT":0.00030425,"MEAN_MOTION_DDOT":0}]
